[{"OBJECT_NAME":"STARLINK-31447","OBJECT_ID":"2024-056G","EPOCH":"2026-03-09T11:45:19.207296","MEAN_MOTION":15.27571238,"ECCENTRICITY":9.479e-5,"INCLINATION":43.0009,"RA_OF_ASC_NODE":231.8462,"ARG_OF_PERICENTER":274.9567,"MEAN_ANOMALY":85.1176,"EPHEMERIS_TYPE":0,"CLASSIFICATION_TYPE":"U","NORAD_CAT_ID":59302,"ELEMENT_SET_NO":999,"REV_AT_EPOCH":11112,"BSTAR":-7.407068e-6,"MEAN_MOTION_DOT":-4.66e-6,"MEAN_MOTION_DDOT":0},{"OBJECT_NAME":"FLOCK 4G-3","OBJECT_ID":"2025-009AG","EPOCH":"2026-03-09T19:14:30.392160","MEAN_MOTION":15.2717931,"ECCENTRICITY":0.00013196,"INCLINATION":97.4062,"RA_OF_ASC_NODE":151.4068,"ARG_OF_PERICENTER":293.2042,"MEAN_ANOMALY":66.9058,"EPHEMERIS_TYPE":0,"CLASSIFICATION_TYPE":"U","NORAD_CAT_ID":62639,"ELEMENT_SET_NO":999,"REV_AT_EPOCH":6372,"BSTAR":0.0004338875,"MEAN_MOTION_DOT":0.00011494,"MEAN_MOTION_DDOT":0}]
